CTC1_L_00431001-01
1 50408U 22481N   26037.47805556  .00000000  00000+0  00000-0 0  9991
2 50408  65.0000   0.0000 0000000   0.0000   0.0000 12.53473282    18
CTC1_L_00431001-02
1 50409U 24689QB  26037.47805556  .00000000  00000+0  00000-0 0  9994
2 50409  65.0000   0.0000 0000000   0.0000  90.0000 12.53473282    18
CTC1_L_00431001-03
1 50410U 23839AW  26037.47805556  .00000000  00000+0  00000-0 0  9992
2 50410  65.0000   0.0000 0000000   0.0000 180.0000 12.53473282    10
CTC1_L_00431001-04
1 50411U 25552EB  26037.47805556  .00000000  00000+0  00000-0 0  9997
2 50411  65.0000   0.0000 0000000   0.0000 270.0000 12.53473282    11
CTC1_L_00431002-01
1 50412U 25843EO  26037.47805556  .00000000  00000+0  00000-0 0  9991
2 50412  65.0000  12.0000 0000000   0.0000  12.0000 12.53473282    19
CTC1_L_00431002-02
1 50413U 26119BW  26037.47805556  .00000000  00000+0  00000-0 0  9999
2 50413  65.0000  12.0000 0000000   0.0000 102.0000 12.53473282    10
CTC1_L_00431002-03
1 50414U 22787CO  26037.47805556  .00000000  00000+0  00000-0 0  9997
2 50414  65.0000  12.0000 0000000   0.0000 192.0000 12.53473282    10
CTC1_L_00431002-04
1 50415U 25435SS  26037.47805556  .00000000  00000+0  00000-0 0  9991
2 50415  65.0000  12.0000 0000000   0.0000 282.0000 12.53473282    11
CTC1_L_00431003-01
1 50416U 26545WN  26037.47805556  .00000000  00000+0  00000-0 0  9995
2 50416  65.0000  24.0000 0000000   0.0000  24.0000 12.53473282    19
CTC1_L_00431003-02
1 50417U 26710NP  26037.47805556  .00000000  00000+0  00000-0 0  9990
2 50417  65.0000  24.0000 0000000   0.0000 114.0000 12.53473282    10
CTC1_L_00431003-03
1 50418U 26915HW  26037.47805556  .00000000  00000+0  00000-0 0  9998
2 50418  65.0000  24.0000 0000000   0.0000 204.0000 12.53473282    11
CTC1_L_00431003-04
1 50419U 26854J   26037.47805556  .00000000  00000+0  00000-0 0  9991
2 50419  65.0000  24.0000 0000000   0.0000 294.0000 12.53473282    11
CTC1_L_00431004-01
1 50420U 25952YM  26037.47805556  .00000000  00000+0  00000-0 0  9991
2 50420  65.0000  36.0000 0000000   0.0000  36.0000 12.53473282    10
CTC1_L_00431004-02
1 50421U 26040IY  26037.47805556  .00000000  00000+0  00000-0 0  9991
2 50421  65.0000  36.0000 0000000   0.0000 126.0000 12.53473282    11
CTC1_L_00431004-03
1 50422U 26767YW  26037.47805556  .00000000  00000+0  00000-0 0  9998
2 50422  65.0000  36.0000 0000000   0.0000 216.0000 12.53473282    12
CTC1_L_00431004-04
1 50423U 23739DG  26037.47805556  .00000000  00000+0  00000-0 0  9995
2 50423  65.0000  36.0000 0000000   0.0000 306.0000 12.53473282    13
CTC1_L_00431005-01
1 50424U 24005XT  26037.47805556  .00000000  00000+0  00000-0 0  9993
2 50424  65.0000  48.0000 0000000   0.0000  48.0000 12.53473282    10
CTC1_L_00431005-02
1 50425U 25969LG  26037.47805556  .00000000  00000+0  00000-0 0  9994
2 50425  65.0000  48.0000 0000000   0.0000 138.0000 12.53473282    11
CTC1_L_00431005-03
1 50426U 25980UJ  26037.47805556  .00000000  00000+0  00000-0 0  9998
2 50426  65.0000  48.0000 0000000   0.0000 228.0000 12.53473282    12
CTC1_L_00431005-04
1 50427U 25867NV  26037.47805556  .00000000  00000+0  00000-0 0  9993
2 50427  65.0000  48.0000 0000000   0.0000 318.0000 12.53473282    13
CTC1_L_00431006-01
1 50428U 23433FY  26037.47805556  .00000000  00000+0  00000-0 0  9991
2 50428  65.0000  60.0000 0000000   0.0000  60.0000 12.53473282    12
CTC1_L_00431006-02
1 50429U 25743ZP  26037.47805556  .00000000  00000+0  00000-0 0  9998
2 50429  65.0000  60.0000 0000000   0.0000 150.0000 12.53473282    13
CTC1_L_00431006-03
1 50430U 23802FY  26037.47805556  .00000000  00000+0  00000-0 0  9994
2 50430  65.0000  60.0000 0000000   0.0000 240.0000 12.53473282    15
CTC1_L_00431006-04
1 50431U 23234IS  26037.47805556  .00000000  00000+0  00000-0 0  9994
2 50431  65.0000  60.0000 0000000   0.0000 330.0000 12.53473282    16
CTC1_L_00431007-01
1 50432U 24528QD  26037.47805556  .00000000  00000+0  00000-0 0  9992
2 50432  65.0000  72.0000 0000000   0.0000  72.0000 12.53473282    13
CTC1_L_00431007-02
1 50433U 23098WD  26037.47805556  .00000000  00000+0  00000-0 0  9994
2 50433  65.0000  72.0000 0000000   0.0000 162.0000 12.53473282    14
CTC1_L_00431007-03
1 50434U 23393MT  26037.47805556  .00000000  00000+0  00000-0 0  9993
2 50434  65.0000  72.0000 0000000   0.0000 252.0000 12.53473282    15
CTC1_L_00431007-04
1 50435U 22401HY  26037.47805556  .00000000  00000+0  00000-0 0  9993
2 50435  65.0000  72.0000 0000000   0.0000 342.0000 12.53473282    16
CTC1_L_00431008-01
1 50436U 23691FK  26037.47805556  .00000000  00000+0  00000-0 0  9996
2 50436  65.0000  84.0000 0000000   0.0000  84.0000 12.53473282    13
CTC1_L_00431008-02
1 50437U 25073EO  26037.47805556  .00000000  00000+0  00000-0 0  9993
2 50437  65.0000  84.0000 0000000   0.0000 174.0000 12.53473282    14
CTC1_L_00431008-03
1 50438U 24094WS  26037.47805556  .00000000  00000+0  00000-0 0  9996
2 50438  65.0000  84.0000 0000000   0.0000 264.0000 12.53473282    15
CTC1_L_00431008-04
1 50439U 23509TJ  26037.47805556  .00000000  00000+0  00000-0 0  9997
2 50439  65.0000  84.0000 0000000   0.0000 354.0000 12.53473282    16
CTC1_L_00431009-01
1 50440U 23033AQ  26037.47805556  .00000000  00000+0  00000-0 0  9991
2 50440  65.0000  96.0000 0000000   0.0000  96.0000 12.53473282    14
CTC1_L_00431009-02
1 50441U 25004FF  26037.47805556  .00000000  00000+0  00000-0 0  9992
2 50441  65.0000  96.0000 0000000   0.0000 186.0000 12.53473282    15
CTC1_L_00431009-03
1 50442U 25092PW  26037.47805556  .00000000  00000+0  00000-0 0  9990
2 50442  65.0000  96.0000 0000000   0.0000 276.0000 12.53473282    16
CTC1_L_00431009-04
1 50443U 25409XT  26037.47805556  .00000000  00000+0  00000-0 0  9993
2 50443  65.0000  96.0000 0000000   0.0000   6.0000 12.53473282    18
CTC1_L_00431010-01
1 50444U 24231GS  26037.47805556  .00000000  00000+0  00000-0 0  9996
2 50444  65.0000 108.0000 0000000   0.0000 108.0000 12.53473282    16
CTC1_L_00431010-02
1 50445U 25532WS  26037.47805556  .00000000  00000+0  00000-0 0  9992
2 50445  65.0000 108.0000 0000000   0.0000 198.0000 12.53473282    16
CTC1_L_00431010-03
1 50446U 24965QU  26037.47805556  .00000000  00000+0  00000-0 0  9992
2 50446  65.0000 108.0000 0000000   0.0000 288.0000 12.53473282    17
CTC1_L_00431010-04
1 50447U 24027AL  26037.47805556  .00000000  00000+0  00000-0 0  9992
2 50447  65.0000 108.0000 0000000   0.0000  18.0000 12.53473282    19
CTC1_L_00431011-01
1 50448U 23652RM  26037.47805556  .00000000  00000+0  00000-0 0  9996
2 50448  65.0000 120.0000 0000000   0.0000 120.0000 12.53473282    18
CTC1_L_00431011-02
1 50449U 25690IS  26037.47805556  .00000000  00000+0  00000-0 0  9991
2 50449  65.0000 120.0000 0000000   0.0000 210.0000 12.53473282    19
CTC1_L_00431011-03
1 50450U 22043EZ  26037.47805556  .00000000  00000+0  00000-0 0  9992
2 50450  65.0000 120.0000 0000000   0.0000 300.0000 12.53473282    11
CTC1_L_00431011-04
1 50451U 26168GI  26037.47805556  .00000000  00000+0  00000-0 0  9995
2 50451  65.0000 120.0000 0000000   0.0000  30.0000 12.53473282    12
CTC1_L_00431012-01
1 50452U 22890SV  26037.47805556  .00000000  00000+0  00000-0 0  9994
2 50452  65.0000 132.0000 0000000   0.0000 132.0000 12.53473282    19
CTC1_L_00431012-02
1 50453U 26104XP  26037.47805556  .00000000  00000+0  00000-0 0  9997
2 50453  65.0000 132.0000 0000000   0.0000 222.0000 12.53473282    10
CTC1_L_00431012-03
1 50454U 24825SX  26037.47805556  .00000000  00000+0  00000-0 0  9996
2 50454  65.0000 132.0000 0000000   0.0000 312.0000 12.53473282    11
CTC1_L_00431012-04
1 50455U 25466XA  26037.47805556  .00000000  00000+0  00000-0 0  9999
2 50455  65.0000 132.0000 0000000   0.0000  42.0000 12.53473282    12
CTC1_L_00431013-01
1 50456U 23666ZS  26037.47805556  .00000000  00000+0  00000-0 0  9990
2 50456  65.0000 144.0000 0000000   0.0000 144.0000 12.53473282    19
CTC1_L_00431013-02
1 50457U 26357XE  26037.47805556  .00000000  00000+0  00000-0 0  9991
2 50457  65.0000 144.0000 0000000   0.0000 234.0000 12.53473282    10
CTC1_L_00431013-03
1 50458U 24576DW  26037.47805556  .00000000  00000+0  00000-0 0  9993
2 50458  65.0000 144.0000 0000000   0.0000 324.0000 12.53473282    11
CTC1_L_00431013-04
1 50459U 25549SA  26037.47805556  .00000000  00000+0  00000-0 0  9995
2 50459  65.0000 144.0000 0000000   0.0000  54.0000 12.53473282    12
CTC1_L_00431014-01
1 50460U 25502BS  26037.47805556  .00000000  00000+0  00000-0 0  9996
2 50460  65.0000 156.0000 0000000   0.0000 156.0000 12.53473282    10
CTC1_L_00431014-02
1 50461U 22990KL  26037.47805556  .00000000  00000+0  00000-0 0  9995
2 50461  65.0000 156.0000 0000000   0.0000 246.0000 12.53473282    11
CTC1_L_00431014-03
1 50462U 26560D   26037.47805556  .00000000  00000+0  00000-0 0  9993
2 50462  65.0000 156.0000 0000000   0.0000 336.0000 12.53473282    12
CTC1_L_00431014-04
1 50463U 26453UA  26037.47805556  .00000000  00000+0  00000-0 0  9995
2 50463  65.0000 156.0000 0000000   0.0000  66.0000 12.53473282    13
CTC1_L_00431015-01
1 50464U 24859MV  26037.47805556  .00000000  00000+0  00000-0 0  9994
2 50464  65.0000 168.0000 0000000   0.0000 168.0000 12.53473282    10
CTC1_L_00431015-02
1 50465U 25256LX  26037.47805556  .00000000  00000+0  00000-0 0  9997
2 50465  65.0000 168.0000 0000000   0.0000 258.0000 12.53473282    11
CTC1_L_00431015-03
1 50466U 25008TO  26037.47805556  .00000000  00000+0  00000-0 0  9993
2 50466  65.0000 168.0000 0000000   0.0000 348.0000 12.53473282    12
CTC1_L_00431015-04
1 50467U 26776PQ  26037.47805556  .00000000  00000+0  00000-0 0  9997
2 50467  65.0000 168.0000 0000000   0.0000  78.0000 12.53473282    13
CTC1_L_00431016-01
1 50468U 23552TM  26037.47805556  .00000000  00000+0  00000-0 0  9997
2 50468  65.0000 180.0000 0000000   0.0000 180.0000 12.53473282    12
CTC1_L_00431016-02
1 50469U 24035VB  26037.47805556  .00000000  00000+0  00000-0 0  9995
2 50469  65.0000 180.0000 0000000   0.0000 270.0000 12.53473282    13
